ONEWEB-0371             
1 49297U 21090U   25352.51845328 -.00000027  00000+0 -10074-3 0  9991
2 49297  87.9201 340.9138 0001782  83.2954 276.8381 13.19725372202624
ONEWEB-0372             
1 49298U 21090V   25352.40563488  .00000130  00000+0  28830-3 0  9996
2 49298  87.9201 310.4944 0001918  78.3651 281.7697 13.20770701205976
ONEWEB-0373             
1 49299U 21090W   25352.43259950 -.00000033  00000+0 -11418-3 0  9994
2 49299  87.9199 310.5022 0001806  84.1980 275.9360 13.20770059207168
ONEWEB-0374             
1 49300U 21090X   25352.49121459 -.00000106  00000+0 -31918-3 0  9993
2 49300  87.8996 325.6977 0002205  95.0473 265.0908 13.14500134203828
ONEWEB-0375             
1 49301U 21090Y   25352.41998577  .00000014  00000+0  27707-5 0  9998
2 49301  87.9199 310.4852 0001907  99.1385 260.9964 13.20770917206660
ONEWEB-0376             
1 49302U 21090Z   25352.51686624  .00000054  00000+0  10279-3 0  9995
2 49302  87.9209 340.9019 0001950  80.4378 279.6975 13.19723374202623
ONEWEB-0377             
1 49303U 21090AA  25352.40591124 -.00000014  00000+0 -67228-4 0  9999
2 49303  87.9207 310.4895 0001672  84.5499 275.5826 13.20769077206655
ONEWEB-0378             
1 49304U 21090AB  25352.42801676  .00000020  00000+0  17619-4 0  9992
2 49304  87.9204 310.4994 0001914  85.1375 274.9977 13.20770864205927
